STARLINK-1128
1 14931C 20001T   21326.16787881  .00061450  00000-0  40216-2 0  3269
2 14931  53.0538 187.9678 0001404  73.9317 153.4169 15.07204673    17
